[{"OBJECT_NAME":"STARLINK-31738","OBJECT_ID":"2024-074B","EPOCH":"2026-03-09T03:22:01.120800","MEAN_MOTION":15.27566278,"ECCENTRICITY":0.00017898,"INCLINATION":43.0029,"RA_OF_ASC_NODE":342.7991,"ARG_OF_PERICENTER":259.9964,"MEAN_ANOMALY":100.0686,"EPHEMERIS_TYPE":0,"CLASSIFICATION_TYPE":"U","NORAD_CAT_ID":59535,"ELEMENT_SET_NO":999,"REV_AT_EPOCH":10597,"BSTAR":-0.0001780043,"MEAN_MOTION_DOT":-5.155e-5,"MEAN_MOTION_DDOT":0},{"OBJECT_NAME":"UNKNOWN","OBJECT_ID":"","EPOCH":"2026-03-09T10:30:41.440032","MEAN_MOTION":14.01503823,"ECCENTRICITY":0.0581998,"INCLINATION":65.7904,"RA_OF_ASC_NODE":128.3867,"ARG_OF_PERICENTER":3.0119,"MEAN_ANOMALY":357.4216,"EPHEMERIS_TYPE":0,"CLASSIFICATION_TYPE":"U","NORAD_CAT_ID":87690,"ELEMENT_SET_NO":999,"REV_AT_EPOCH":61952,"BSTAR":0.00073444,"MEAN_MOTION_DOT":5.044e-5,"MEAN_MOTION_DDOT":0}]
